FENGYUN 1C DEB          
1 33701U 99025DGN 17345.24623588  .00000443  00000-0  34870-3 0  9993
2 33701  98.6729  87.8548 0151691   0.8778  28.0856 13.91420464497654
